ordinal{string},comment{string},originator{string},norad_cat_id{string},object_name{string},object_type{string},classification_type{string},intldes{string},epoch{timestamp},epoch_microseconds{integer},mean_motion{decimal},eccentricity{decimal},inclination{decimal},ra_of_asc_node{decimal},arg_of_pericenter{decimal},mean_anomaly{decimal},ephemeris_type{string},element_set_no{string},rev_at_epoch{integer},bstar{decimal},mean_motion_dot{decimal},mean_motion_ddot{string},file{string},tle_line0{string},tle_line1{string},tle_line2{string},object_id{string},object_number{string},semimajor_axis{decimal},period{decimal},apogee{decimal},perigee{decimal}
1,GENERATED VIA SPACETRACK.ORG API,JSPOC,8288,COSMOS 764,PAYLOAD,U,75086D,2019-02-21T23:16:14Z,982240,12.4105165300000007,0.00305589999999999985,74.0062000000000069,238.737500000000011,238.763100000000009,275.060799999999972,0,999,96770,-8.68319999999999981e-05,-2.70000000000000009e-07,0,2414564,0 COSMOS 764,1  8288U 75086D   19052.96961785 -.00000027 +00000-0 -86832-4 0  9992,2  8288 074.0062 238.7375 0030559 238.7631 275.0608 12.41051653967709,1975-086D,8288,7880.28499999999985,116.030000000000001,1526.23099999999999,1478.06799999999998
1,GENERATED VIA SPACETRACK.ORG API,JSPOC,6822,OPS 8314 (2),PAYLOAD,U,72079C,2019-02-21T23:16:26Z,398272,12.55529136,0.0029905000000000001,95.6415999999999968,185.071300000000008,187.507900000000006,287.345700000000022,0,999,12436,6.15659999999999997e-05,-2.00000000000000004e-08,0,2414564,0 OPS 8314 (2),1  6822U 72079C   19052.96974998 -.00000002 +00000-0 +61566-4 0  9992,2  6822 095.6416 185.0713 0029905 187.5079 287.3457 12.55529136124369,1972-079C,6822,7819.58899999999994,114.691999999999993,1464.83899999999994,1418.06999999999994
1,GENERATED VIA SPACETRACK.ORG API,JSPOC,7684,COSMOS 717,PAYLOAD,U,75016G,2019-02-21T23:16:48Z,306720,12.3979661500000002,0.00354170000000000006,74.002200000000002,283.156200000000013,353.618499999999983,114.402900000000002,0,999,99063,8.93240000000000006e-05,-4.00000000000000008e-08,0,2414564,0 COSMOS 717,1  7684U 75016G   19052.97000355 -.00000004 +00000-0 +89324-4 0  9995,2  7684 074.0022 283.1562 0035417 353.6185 114.4029 12.39796615990637,1975-016G,7684,7885.60199999999986,116.147999999999996,1535.39499999999998,1479.53800000000001
1,GENERATED VIA SPACETRACK.ORG API,JSPOC,11128,COSMOS 1051,PAYLOAD,U,78109A,2019-02-21T23:17:01Z,341024,12.5591858399999996,0.00576750000000000006,74.0161999999999978,47.7361000000000004,127.631,261.703800000000001,0,999,84361,-5.74220000000000001e-05,-2.49999999999999989e-07,0,2414564,0 COSMOS 1051,1 11128U 78109A   19052.97015441 -.00000025 +00000-0 -57422-4 0  9999,2 11128 074.0162 047.7361 0057675 127.6310 261.7038 12.55918584843610,1978-109A,11128,7817.97299999999996,114.656999999999996,1484.92800000000011,1394.74800000000005
1,GENERATED VIA SPACETRACK.ORG API,JSPOC,39134,SOMP,PAYLOAD,U,13015E,2019-02-21T23:17:07Z,521216,15.1982992800000005,0.00198340000000000018,64.8632000000000062,38.4973000000000027,322.086299999999994,37.8866000000000014,0,999,32247,7.12470000000000041e-05,1.33700000000000007e-05,0,2414564,0 SOMP,1 39134U 13015E   19052.97022594 +.00001337 +00000-0 +71247-4 0  9994,2 39134 064.8632 038.4973 0019834 322.0863 037.8866 15.19829928322474,2013-015E,39134,6884.49099999999999,94.7469999999999999,520.009999999999991,492.701000000000022
1,GENERATED VIA SPACETRACK.ORG API,JSPOC,33060,ORBCOMM FM 38,PAYLOAD,U,08031A,2019-02-21T23:17:09Z,675168,14.7351537100000005,0.000707900000000000022,48.4440999999999988,46.1978999999999971,279.208500000000015,80.8027000000000015,0,999,57409,2.33379999999999992e-05,-4.89999999999999967e-07,0,2414564,0 ORBCOMM FM 38,1 33060U 08031A   19052.97025087 -.00000049 +00000-0 +23338-4 0  9996,2 33060 048.4441 046.1979 0007079 279.2085 080.8027 14.73515371574098,2008-031A,33060,7028.00399999999991,97.7249999999999943,654.845000000000027,644.894000000000005
1,GENERATED VIA SPACETRACK.ORG API,JSPOC,6079,METEOR 1-12,PAYLOAD,U,72049A,2019-02-21T23:17:13Z,209792,14.0308875299999993,0.00114919999999999996,81.2256,44.1580999999999975,32.8408000000000015,327.347100000000012,0,999,38633,-5.96630000000000012e-05,-7.99999999999999964e-07,0,2414564,0 METEOR 1-12,1  6079U 72049A   19052.97029178 -.00000080 +00000-0 -59663-4 0  9997,2  6079 081.2256 044.1581 0011492 032.8408 327.3471 14.03088753386332,1972-049A,6079,7261.25500000000011,102.629999999999995,891.465000000000032,874.775999999999954
1,GENERATED VIA SPACETRACK.ORG API,JSPOC,58,COURIER 1B,PAYLOAD,U,60013A,2019-02-21T23:17:14Z,261280,13.4631627500000004,0.0164985999999999987,28.3287000000000013,17.3087000000000018,43.0737999999999985,318.259099999999989,0,999,87421,1.88160000000000008e-05,9.5000000000000001e-07,0,2414263,0 COURIER 1B,1    58U 60013A   19052.97030395  .00000095  00000-0  18816-4 0  9998,2    58  28.3287  17.3087 0164986  43.0738 318.2591 13.46316275874219,1960-013A,58,7463.97900000000027,106.957999999999998,1208.98900000000003,962.698999999999955
1,GENERATED VIA SPACETRACK.ORG API,JSPOC,15622,COSMOS 1640,PAYLOAD,U,85023F,2019-02-21T23:17:18Z,40416,12.5279525899999999,0.00333080000000000008,74.052899999999994,225.155599999999993,77.6299999999999955,39.2869000000000028,0,999,55165,-0.000112029999999999996,-3.30000000000000017e-07,0,2414564,0 COSMOS 1640,1 15622U 85023F   19052.97034769 -.00000033 +00000-0 -11203-3 0  9994,2 15622 074.0529 225.1556 0033308 077.6300 039.2869 12.52795259551657,1985-023F,15622,7830.96100000000024,114.941999999999993,1478.91000000000008,1426.74299999999994
1,GENERATED VIA SPACETRACK.ORG API,JSPOC,23191,APEX,PAYLOAD,U,94046A,2019-02-21T23:18:35Z,685504,14.4625790900000002,0.0567235000000000031,69.9175999999999931,225.778899999999993,105.720500000000001,260.722199999999987,0,999,20521,0.000207459999999999996,6.37599999999999994e-05,0,2414278,0 APEX,1 23191U 94046A   19052.97124636  .00006376  00000-0  20746-3 0  9998,2 23191  69.9176 225.7789 0567235 105.7205 260.7222 14.46257909205212,1994-046A,23191,7116.03300000000036,99.5669999999999931,1141.54500000000007,334.25200000000001
1,GENERATED VIA SPACETRACK.ORG API,JSPOC,5554,COSMOS 451,PAYLOAD,U,71086H,2019-02-21T23:19:01Z,341120,12.3427245699999997,0.00532969999999999972,74.0251999999999981,238.162599999999998,183.410899999999998,289.995999999999981,0,999,13396,-0.000119929999999999999,-2.99999999999999986e-07,0,2414564,0 COSMOS 451,1  5554U 71086H   19052.97154330 -.00000030 +00000-0 -11993-3 0  9991,2  5554 074.0252 238.1626 0053297 183.4109 289.9960 12.34272457133963,1971-086H,5554,7909.11300000000028,116.667000000000002,1573.13100000000009,1488.82500000000005
1,GENERATED VIA SPACETRACK.ORG API,JSPOC,9022,COSMOS 841,PAYLOAD,U,76069A,2019-02-21T23:19:08Z,243616,14.3575237199999997,0.00130839999999999993,74.044399999999996,165.153699999999986,189.640899999999988,170.4495,0,999,22908,1.7289e-05,2.39999999999999979e-07,0,2414311,0 COSMOS 841,1  9022U 76069A   19052.97162319  .00000024  00000-0  17289-4 0  9993,2  9022  74.0444 165.1537 0013084 189.6409 170.4495 14.35752372229089,1976-069A,9022,7150.70399999999972,100.295000000000002,781.924999999999955,763.212999999999965
1,GENERATED VIA SPACETRACK.ORG API,JSPOC,20739,COSMOS 2094,PAYLOAD,U,90070E,2019-02-21T23:19:38Z,424864,12.6468482200000008,0.00117179999999999997,82.5755999999999943,205.043200000000013,55.4129999999999967,66.854699999999994,0,999,31743,-7.35689999999999998e-05,-2.99999999999999973e-08,0,2414564,0 COSMOS 2094,1 20739U 90070E   19052.97197251 -.00000003 +00000-0 -73569-4 0  9994,2 20739 082.5756 205.0432 0011718 055.4130 066.8547 12.64684822317435,1990-070E,20739,7781.80400000000009,113.861999999999995,1412.78700000000003,1394.54999999999995
1,GENERATED VIA SPACETRACK.ORG API,JSPOC,19419,OSCAR 25,PAYLOAD,U,88074A,2019-02-21T23:19:49Z,431360,13.4220482600000004,0.00977699999999999923,89.9921999999999969,18.2088999999999999,134.482799999999997,291.783299999999997,0,999,49292,5.01140000000000016e-05,3.90000000000000025e-07,0,2414564,0 OSCAR 25,1 19419U 88074A   19052.97209990 +.00000039 +00000-0 +50114-4 0  9990,2 19419 089.9922 018.2089 0097770 134.4828 291.7833 13.42204826492924,1988-074A,19419,7479.21399999999994,107.286000000000001,1174.20299999999997,1027.95499999999993
1,GENERATED VIA SPACETRACK.ORG API,JSPOC,12640,COSMOS 1291,PAYLOAD,U,81074E,2019-02-21T23:19:56Z,763264,12.5084284700000001,0.000468800000000000011,74.0298999999999978,255.80619999999999,314.95010000000002,197.009399999999999,0,999,71445,1.84560000000000008e-05,-1.29999999999999999e-07,0,2414564,0 COSMOS 1291,1 12640U 81074E   19052.97218476 -.00000013 +00000-0 +18456-4 0  9997,2 12640 074.0299 255.8062 0004688 314.9501 197.0094 12.50842847714455,1981-074E,12640,7839.10800000000017,115.122,1464.64799999999991,1457.298
1,GENERATED VIA SPACETRACK.ORG API,JSPOC,9594,COSMOS 877,PAYLOAD,U,76118G,2019-02-21T23:20:19Z,305024,12.5129635199999996,0.000667900000000000026,74.0276999999999958,229.587700000000012,277.579799999999977,199.732300000000009,0,999,92799,-0.000107889999999999999,-3.30000000000000017e-07,0,2414564,0 COSMOS 877,1  9594U 76118G   19052.97244566 -.00000033 +00000-0 -10789-3 0  9996,2  9594 074.0277 229.5877 0006679 277.5798 199.7323 12.51296352927995,1976-118G,9594,7837.21399999999994,115.079999999999998,1464.3130000000001,1453.84400000000005
1,GENERATED VIA SPACETRACK.ORG API,JSPOC,25678,GLOBALSTAR M044,PAYLOAD,U,99019C,2019-02-21T23:20:34Z,889856,11.9018869699999996,0.000598800000000000027,51.9986999999999995,31.5856999999999992,269.8279,144.249400000000009,0,999,89658,8.55560000000000055e-05,-7.70000000000000039e-07,0,2414564,0 GLOBALSTAR M044,1 25678U 99019C   19052.97262604 -.00000077 +00000-0 +85556-4 0  9997,2 25678 051.9987 031.5857 0005988 269.8279 144.2494 11.90188697896585,1999-019C,25678,8103.22599999999966,120.989000000000004,1729.94299999999998,1720.23800000000006
